{"fetched_at":"2026-04-01T16:59:04Z","count":11445,"tles":[{"name":"STARLINK-37200","line1":"1 68339U 26059U   26090.66668981 -.01269689  00000+0 -69663-2 0  9992","line2":"2 68339  53.1592 252.6033 0001256  99.8036 180.8964 15.81831531  2572","category":"Starlink"}]}